CCSDS_OMM_VERS = 2.0
CREATION_DATE  = 
ORIGINATOR     = 

OBJECT_NAME    = CZ-2C R/B
OBJECT_ID      = 2022-058K
CENTER_NAME    = EARTH
REF_FRAME      = TEME
TIME_SYSTEM    = UTC
MEAN_ELEMENT_THEORY = SGP/SGP4

EPOCH          = 2025-11-26T11:23:53.197728
MEAN_MOTION    = 15.47343705
ECCENTRICITY   = .00473217
INCLINATION    = 50.1892
RA_OF_ASC_NODE = 126.4236
ARG_OF_PERICENTER = 131.2741
MEAN_ANOMALY   = 229.2317

EPHEMERIS_TYPE = 0
CLASSIFICATION_TYPE = U
NORAD_CAT_ID   = 52794
ELEMENT_SET_NO = 999
REV_AT_EPOCH   = 19411
BSTAR          = .49202285E-3
MEAN_MOTION_DOT = .26386E-3
MEAN_MOTION_DDOT = 0

CCSDS_OMM_VERS = 2.0
CREATION_DATE  = 
ORIGINATOR     = 

OBJECT_NAME    = CZ-2C R/B
OBJECT_ID      = 2022-132E
CENTER_NAME    = EARTH
REF_FRAME      = TEME
TIME_SYSTEM    = UTC
MEAN_ELEMENT_THEORY = SGP/SGP4

EPOCH          = 2025-11-26T23:02:24.208224
MEAN_MOTION    = 15.53466780
ECCENTRICITY   = .0024001
INCLINATION    = 97.2953
RA_OF_ASC_NODE = 326.8741
ARG_OF_PERICENTER = 108.5234
MEAN_ANOMALY   = 251.8630

EPHEMERIS_TYPE = 0
CLASSIFICATION_TYPE = U
NORAD_CAT_ID   = 54039
ELEMENT_SET_NO = 999
REV_AT_EPOCH   = 17438
BSTAR          = .47447E-3
MEAN_MOTION_DOT = .3043E-3
MEAN_MOTION_DDOT = 0

CCSDS_OMM_VERS = 2.0
CREATION_DATE  = 
ORIGINATOR     = 

OBJECT_NAME    = GSLV R/B
OBJECT_ID      = 2022-138AN
CENTER_NAME    = EARTH
REF_FRAME      = TEME
TIME_SYSTEM    = UTC
MEAN_ELEMENT_THEORY = SGP/SGP4

EPOCH          = 2025-11-27T01:41:23.112096
MEAN_MOTION    = 14.96011427
ECCENTRICITY   = .0022351
INCLINATION    = 87.3842
RA_OF_ASC_NODE = 200.7200
ARG_OF_PERICENTER = 158.0396
MEAN_ANOMALY   = 202.1799

EPHEMERIS_TYPE = 0
CLASSIFICATION_TYPE = U
NORAD_CAT_ID   = 54149
ELEMENT_SET_NO = 999
REV_AT_EPOCH   = 16858
BSTAR          = .29224E-3
MEAN_MOTION_DOT = .3321E-4
MEAN_MOTION_DDOT = 0

CCSDS_OMM_VERS = 2.0
CREATION_DATE  = 
ORIGINATOR     = 

OBJECT_NAME    = XRISM
OBJECT_ID      = 2023-137A
CENTER_NAME    = EARTH
REF_FRAME      = TEME
TIME_SYSTEM    = UTC
MEAN_ELEMENT_THEORY = SGP/SGP4

EPOCH          = 2025-11-27T00:54:48.856608
MEAN_MOTION    = 15.10128838
ECCENTRICITY   = .00076
INCLINATION    = 31.0011
RA_OF_ASC_NODE = 226.9070
ARG_OF_PERICENTER = 85.7995
MEAN_ANOMALY   = 274.3512

EPHEMERIS_TYPE = 0
CLASSIFICATION_TYPE = U
NORAD_CAT_ID   = 57800
ELEMENT_SET_NO = 999
REV_AT_EPOCH   = 12225
BSTAR          = .38734E-3
MEAN_MOTION_DOT = .6571E-4
MEAN_MOTION_DDOT = 0

CCSDS_OMM_VERS = 2.0
CREATION_DATE  = 
ORIGINATOR     = 

OBJECT_NAME    = ACS3
OBJECT_ID      = 2024-077B
CENTER_NAME    = EARTH
REF_FRAME      = TEME
TIME_SYSTEM    = UTC
MEAN_ELEMENT_THEORY = SGP/SGP4

EPOCH          = 2025-11-26T20:37:39.304416
MEAN_MOTION    = 13.84353132
ECCENTRICITY   = .0072725
INCLINATION    = 97.2867
RA_OF_ASC_NODE = 290.0014
ARG_OF_PERICENTER = 8.3524
MEAN_ANOMALY   = 351.8829

EPHEMERIS_TYPE = 0
CLASSIFICATION_TYPE = U
NORAD_CAT_ID   = 59588
ELEMENT_SET_NO = 999
REV_AT_EPOCH   = 7994
BSTAR          = -.60606E-2
MEAN_MOTION_DOT = -.6939E-4
MEAN_MOTION_DDOT = 0

