CZ-2C R/B               
1 52794U 22058K   25330.47492127  .00026386  00000+0  49202-3 0  9997
2 52794  50.1892 126.4236 0047321 131.2741 229.2317 15.47343705194115
CZ-2C R/B               
1 54039U 22132E   25330.96000241  .00030430  00000+0  47447-3 0  9994
2 54039  97.2953 326.8741 0024001 108.5234 251.8630 15.53466780174382
GSLV R/B                
1 54149U 22138AN  25331.07040639  .00003321  00000+0  29224-3 0  9992
2 54149  87.3842 200.7200 0022351 158.0396 202.1799 14.96011427168586
XRISM                   
1 57800U 23137A   25331.03806547  .00006571  00000+0  38734-3 0  9999
2 57800  31.0011 226.9070 0007600  85.7995 274.3512 15.10128838122253
ACS3                    
1 59588U 24077B   25330.85948269 -.00006939  00000+0 -60606-2 0  9997
2 59588  97.2867 290.0014 0072725   8.3524 351.8829 13.84353132 79945
